[{"OBJECT_NAME":"STARLINK-34973","OBJECT_ID":"2025-179R","EPOCH":"2026-03-09T16:46:12.908928","MEAN_MOTION":15.05653681,"ECCENTRICITY":9.931e-5,"INCLINATION":97.6024,"RA_OF_ASC_NODE":113.0365,"ARG_OF_PERICENTER":114.3648,"MEAN_ANOMALY":245.7682,"EPHEMERIS_TYPE":0,"CLASSIFICATION_TYPE":"U","NORAD_CAT_ID":65250,"ELEMENT_SET_NO":999,"REV_AT_EPOCH":3181,"BSTAR":0.00019660226,"MEAN_MOTION_DOT":2.777e-5,"MEAN_MOTION_DDOT":0},{"OBJECT_NAME":"DELTA 1 DEB","OBJECT_ID":"1978-026BU","EPOCH":"2026-03-09T11:22:20.910432","MEAN_MOTION":14.96481719,"ECCENTRICITY":0.00669454,"INCLINATION":98.7967,"RA_OF_ASC_NODE":254.5698,"ARG_OF_PERICENTER":166.8222,"MEAN_ANOMALY":193.4765,"EPHEMERIS_TYPE":0,"CLASSIFICATION_TYPE":"U","NORAD_CAT_ID":12227,"ELEMENT_SET_NO":999,"REV_AT_EPOCH":38498,"BSTAR":0.0006297912,"MEAN_MOTION_DOT":7.412e-5,"MEAN_MOTION_DDOT":0}]
